0 METEOR 2-12
1 15516U 85013A   13282.82980833  .00000077  00000-0  54261-4 0  4049
2 15516 082.5314 068.6971 0015162 356.0663 112.6931 13.85487543450408
0 METEOR 2-12
1 15516U 85013A   13283.99146956  .00000078  00000-0  55014-4 0  4057
2 15516 082.5315 067.7702 0015078 352.7261 146.8477 13.85487861450568
0 METEOR 2-12
1 15516U 85013A   13286.08518888  .00000022  00000-0  63229-5 0  4076
2 15516 082.5321 066.0998 0014946 346.7411 149.9039 13.85488049450856
0 METEOR 2-12
1 15516U 85013A   13287.51595301  .00000032  00000-0  15358-4 0  4081
2 15516 082.5325 064.9584 0014871 342.4561 086.4692 13.85488034451051
0 METEOR 2-12
1 15516U 85013A   13288.75220553  .00000063  00000-0  42056-4 0  4092
2 15516 082.5327 063.9722 0014820 338.6583 132.9184 13.85487992451225
0 METEOR 2-12
1 15516U 85013A   13289.83466725  .00000062  00000-0  41187-4 0  4100
2 15516 082.5330 063.1089 0014781 335.4573 132.1310 13.85488108451376
0 METEOR 2-12
1 15516U 85013A   13290.99628846  .00000070  00000-0  48719-4 0  4111
2 15516 082.5332 062.1826 0014751 331.9057 166.3010 13.85488197451533
0 METEOR 2-12
1 15516U 85013A   13292.00710022  .00000086  00000-0  62097-4 0  4126
2 15516 082.5332 061.3764 0014689 328.9773 168.0715 13.85488154451675
0 METEOR 2-12
1 15516U 85013A   13293.50715345  .00000087  00000-0  63112-4 0  4136
2 15516 082.5334 060.1801 0014617 324.5095 090.2225 13.85488308451882
0 METEOR 2-12
1 15516U 85013A   13294.51656034  .00000086  00000-0  62814-4 0  4145
2 15516 082.5334 059.3750 0014583 321.4394 085.1313 13.85488635452026
0 METEOR 2-12
1 15516U 85013A   13295.97919025  .00000112  00000-0  85270-4 0  4150
2 15516 082.5335 058.2084 0014545 317.0081 180.6958 13.85489194452226
